{
  "type": "FeatureCollection",
  "features": [
    {
      "type": "Feature",
      "properties": {
        "norad_id": 34492,
        "name": "IRIDIUM 33 DEB",
        "group": "iridium-33-debris",
        "lat": 76.26013681042097,
        "lon": -6.588556424148051,
        "alt_km": 932.6879343327728,
        "timestamp": "2025-12-02T10:50:47.660079+00:00",
        "meta_object_name": "IRIDIUM 33 DEB",
        "meta_object_id": "1997-051GH",
        "meta_epoch": "2025-12-01T11:37:20.497728",
        "meta_mean_motion": 14.25192114,
        "meta_eccentricity": 0.01904541,
        "meta_inclination": 86.4698,
        "meta_ra_of_asc_node": 339.1786,
        "meta_arg_of_pericenter": 274.674,
        "meta_mean_anomaly": 239.6935,
        "meta_ephemeris_type": 0,
        "meta_classification_type": "U",
        "meta_norad_cat_id": 34492,
        "meta_element_set_no": 999,
        "meta_rev_at_epoch": 84898,
        "meta_bstar": 0.0079818839,
        "meta_mean_motion_dot": 0.00022727,
        "meta_mean_motion_ddot": 0,
        "tle_line1": "1 34492U 97051GH  25335.48426502  .00022727  00000+0  79819-2 0  9998",
        "tle_line2": "2 34492  86.4698 339.1786 0190454 274.6740 239.6935 14.25192114848989"
      },
      "geometry": {
        "type": "Point",
        "coordinates": [
          -6.588556424148051,
          76.26013681042097
        ]
      }
    },
    {
      "type": "Feature",
      "properties": {
        "norad_id": 34497,
        "name": "IRIDIUM 33 DEB",
        "group": "iridium-33-debris",
        "lat": -62.29111098833419,
        "lon": -116.08550645690677,
        "alt_km": 844.7577825454655,
        "timestamp": "2025-12-02T10:50:47.660089+00:00",
        "meta_object_name": "IRIDIUM 33 DEB",
        "meta_object_id": "1997-051GN",
        "meta_epoch": "2025-12-01T05:14:48.727392",
        "meta_mean_motion": 14.27398963,
        "meta_eccentricity": 0.0080081,
        "meta_inclination": 86.2784,
        "meta_ra_of_asc_node": 57.3223,
        "meta_arg_of_pericenter": 16.9295,
        "meta_mean_anomaly": 12.6117,
        "meta_ephemeris_type": 0,
        "meta_classification_type": "U",
        "meta_norad_cat_id": 34497,
        "meta_element_set_no": 999,
        "meta_rev_at_epoch": 86719,
        "meta_bstar": 0.00069242,
        "meta_mean_motion_dot": 1.774e-05,
        "meta_mean_motion_ddot": 0,
        "tle_line1": "1 34497U 97051GN  25335.21861953  .00001774  00000+0  69242-3 0  9996",
        "tle_line2": "2 34497  86.2784  57.3223 0080081  16.9295  12.6117 14.27398963867196"
      },
      "geometry": {
        "type": "Point",
        "coordinates": [
          -116.08550645690677,
          -62.29111098833419
        ]
      }
    },
    {
      "type": "Feature",
      "properties": {
        "norad_id": 34508,
        "name": "IRIDIUM 33 DEB",
        "group": "iridium-33-debris",
        "lat": -2.40483772889101,
        "lon": 106.85026055107637,
        "alt_km": 808.5266808776796,
        "timestamp": "2025-12-02T10:50:47.660100+00:00",
        "meta_object_name": "IRIDIUM 33 DEB",
        "meta_object_id": "1997-051GZ",
        "meta_epoch": "2025-12-01T19:49:48.096768",
        "meta_mean_motion": 14.38250778,
        "meta_eccentricity": 0.006538,
        "meta_inclination": 86.3693,
        "meta_ra_of_asc_node": 107.2683,
        "meta_arg_of_pericenter": 208.4513,
        "meta_mean_anomaly": 151.3111,
        "meta_ephemeris_type": 0,
        "meta_classification_type": "U",
        "meta_norad_cat_id": 34508,
        "meta_element_set_no": 999,
        "meta_rev_at_epoch": 87152,
        "meta_bstar": 0.0017383,
        "meta_mean_motion_dot": 5.435e-05,
        "meta_mean_motion_ddot": 0,
        "tle_line1": "1 34508U 97051GZ  25335.82625112  .00005435  00000+0  17383-2 0  9997",
        "tle_line2": "2 34508  86.3693 107.2683 0065380 208.4513 151.3111 14.38250778871520"
      },
      "geometry": {
        "type": "Point",
        "coordinates": [
          106.85026055107637,
          -2.40483772889101
        ]
      }
    },
    {
      "type": "Feature",
      "properties": {
        "norad_id": 34521,
        "name": "IRIDIUM 33 DEB",
        "group": "iridium-33-debris",
        "lat": -27.34917828544371,
        "lon": 33.20063921501258,
        "alt_km": 687.9342316462735,
        "timestamp": "2025-12-02T10:50:47.660111+00:00",
        "meta_object_name": "IRIDIUM 33 DEB",
        "meta_object_id": "1997-051HN",
        "meta_epoch": "2025-12-02T04:24:22.923360",
        "meta_mean_motion": 14.63207931,
        "meta_eccentricity": 0.0001245,
        "meta_inclination": 86.3815,
        "meta_ra_of_asc_node": 35.1943,
        "meta_arg_of_pericenter": 303.8096,
        "meta_mean_anomaly": 56.2997,
        "meta_ephemeris_type": 0,
        "meta_classification_type": "U",
        "meta_norad_cat_id": 34521,
        "meta_element_set_no": 999,
        "meta_rev_at_epoch": 88318,
        "meta_bstar": 0.0011054,
        "meta_mean_motion_dot": 5.711e-05,
        "meta_mean_motion_ddot": 0,
        "tle_line1": "1 34521U 97051HN  25336.18359865  .00005711  00000+0  11054-2 0  9997",
        "tle_line2": "2 34521  86.3815  35.1943 0001245 303.8096  56.2997 14.63207931883186"
      },
      "geometry": {
        "type": "Point",
        "coordinates": [
          33.20063921501258,
          -27.34917828544371
        ]
      }
    },
    {
      "type": "Feature",
      "properties": {
        "norad_id": 34525,
        "name": "IRIDIUM 33 DEB",
        "group": "iridium-33-debris",
        "lat": -6.623297522396838,
        "lon": -128.3439392809931,
        "alt_km": 751.249464138652,
        "timestamp": "2025-12-02T10:50:47.660121+00:00",
        "meta_object_name": "IRIDIUM 33 DEB",
        "meta_object_id": "1997-051HS",
        "meta_epoch": "2025-12-01T23:08:06.681408",
        "meta_mean_motion": 14.42860368,
        "meta_eccentricity": 0.0006409,
        "meta_inclination": 86.3737,
        "meta_ra_of_asc_node": 51.4423,
        "meta_arg_of_pericenter": 119.8566,
        "meta_mean_anomaly": 53.5207,
        "meta_ephemeris_type": 0,
        "meta_classification_type": "U",
        "meta_norad_cat_id": 34525,
        "meta_element_set_no": 999,
        "meta_rev_at_epoch": 87932,
        "meta_bstar": 0.00045935,
        "meta_mean_motion_dot": 1.553e-05,
        "meta_mean_motion_ddot": 0,
        "tle_line1": "1 34525U 97051HS  25335.96396622  .00001553  00000+0  45935-3 0  9994",
        "tle_line2": "2 34525  86.3737  51.4423 0006409 119.8566  53.5207 14.42860368879322"
      },
      "geometry": {
        "type": "Point",
        "coordinates": [
          -128.3439392809931,
          -6.623297522396838
        ]
      }
    },
    {
      "type": "Feature",
      "properties": {
        "norad_id": 34529,
        "name": "IRIDIUM 33 DEB",
        "group": "iridium-33-debris",
        "lat": 14.474063007279456,
        "lon": -141.1432847261774,
        "alt_km": 755.9053172948143,
        "timestamp": "2025-12-02T10:50:47.660131+00:00",
        "meta_object_name": "IRIDIUM 33 DEB",
        "meta_object_id": "1997-051HW",
        "meta_epoch": "2025-12-01T14:04:36.035616",
        "meta_mean_motion": 14.40601012,
        "meta_eccentricity": 0.00035034,
        "meta_inclination": 86.3651,
        "meta_ra_of_asc_node": 40.1656,
        "meta_arg_of_pericenter": 218.3703,
        "meta_mean_anomaly": 141.7248,
        "meta_ephemeris_type": 0,
        "meta_classification_type": "U",
        "meta_norad_cat_id": 34529,
        "meta_element_set_no": 999,
        "meta_rev_at_epoch": 87981,
        "meta_bstar": 0.00013685472,
        "meta_mean_motion_dot": 4.56e-06,
        "meta_mean_motion_ddot": 0,
        "tle_line1": "1 34529U 97051HW  25335.58652819  .00000456  00000+0  13685-3 0  9997",
        "tle_line2": "2 34529  86.3651  40.1656 0003503 218.3703 141.7248 14.40601012879810"
      },
      "geometry": {
        "type": "Point",
        "coordinates": [
          -141.1432847261774,
          14.474063007279456
        ]
      }
    },
    {
      "type": "Feature",
      "properties": {
        "norad_id": 34538,
        "name": "IRIDIUM 33 DEB",
        "group": "iridium-33-debris",
        "lat": -71.21446621440879,
        "lon": -0.96960051199228,
        "alt_km": 750.701604272308,
        "timestamp": "2025-12-02T10:50:47.660141+00:00",
        "meta_object_name": "IRIDIUM 33 DEB",
        "meta_object_id": "1997-051JF",
        "meta_epoch": "2025-12-02T03:08:34.535328",
        "meta_mean_motion": 14.42546376,
        "meta_eccentricity": 0.0034146,
        "meta_inclination": 86.2785,
        "meta_ra_of_asc_node": 10.2023,
        "meta_arg_of_pericenter": 3.5659,
        "meta_mean_anomaly": 59.4066,
        "meta_ephemeris_type": 0,
        "meta_classification_type": "U",
        "meta_norad_cat_id": 34538,
        "meta_element_set_no": 999,
        "meta_rev_at_epoch": 87603,
        "meta_bstar": 0.0010217,
        "meta_mean_motion_dot": 3.431e-05,
        "meta_mean_motion_ddot": 0,
        "tle_line1": "1 34538U 97051JF  25336.13095527  .00003431  00000+0  10217-2 0  9999",
        "tle_line2": "2 34538  86.2785  10.2023 0034146   3.5659  59.4066 14.42546376876031"
      },
      "geometry": {
        "type": "Point",
        "coordinates": [
          -0.96960051199228,
          -71.21446621440879
        ]
      }
    }
  ]
}